OBJECT_NAME,OBJECT_ID,EPOCH,MEAN_MOTION,ECCENTRICITY,INCLINATION,RA_OF_ASC_NODE,ARG_OF_PERICENTER,MEAN_ANOMALY,EPHEMERIS_TYPE,CLASSIFICATION_TYPE,NORAD_CAT_ID,ELEMENT_SET_NO,REV_AT_EPOCH,BSTAR,MEAN_MOTION_DOT,MEAN_MOTION_DDOT
HAWK-5A,2022-057AB,2026-07-09T19:21:28.301184,15.52195712,.0003885,97.6619,351.1320,359.6298,0.4951,0,U,52757,999,22985,.23078E-3,.13886E-3,0
HAWK-6B,2023-011A,2026-07-09T13:02:06.421632,15.23122243,.0003304,40.4968,221.6591,209.9422,150.1199,0,U,55324,999,19125,.12815E-3,.2893E-4,0
HAWK-6C,2023-011C,2026-07-09T13:01:12.590112,15.23123597,.0003774,40.4958,218.4978,199.1925,160.8742,0,U,55326,999,19126,.14027E-3,.3186E-4,0
HAWK-6A,2023-011D,2026-07-09T13:01:15.483648,15.23123028,.0003302,40.4966,220.1247,196.9999,163.0700,0,U,55327,999,19126,.12666E-3,.2857E-4,0
HAWK-7A,2023-054P,2026-07-09T17:04:11.232768,15.27595507,.0002032,97.2676,77.4761,358.9659,1.1576,0,U,56191,999,18046,.14579E-3,.3861E-4,0
HAWK-7B,2023-054R,2026-07-09T17:04:04.700928,15.27594208,.0001944,97.2702,75.7478,26.8388,333.2952,0,U,56193,999,18046,.1129E-3,.2974E-4,0
HAWK-7C,2023-054Y,2026-07-09T13:55:15.768768,15.27596142,.0001571,97.2679,76.3818,13.0246,347.1034,0,U,56200,999,18044,.14721E-3,.39E-4,0
